{"type": "FeatureCollection", "features": [ {"type": "Feature", "properties": {"norad_id": 66629, "name": "STARLINK-35956", "group": "last-30-days", "lat": 37.32006786789102, "lon": -44.04003724171298, "alt_km": 413.26247313968634, "timestamp": "2025-12-16T03:53:25.816301+00:00", "meta": {"OBJECT_NAME": "STARLINK-35956", "OBJECT_ID": "2025-271N", "EPOCH": "2025-12-15T08:00:01.999872", "MEAN_MOTION": 15.49267986, "ECCENTRICITY": 7.708e-05, "INCLINATION": 53.1593, "RA_OF_ASC_NODE": 174.7832, "ARG_OF_PERICENTER": 99.052, "MEAN_ANOMALY": 86.5901, "EPHEMERIS_TYPE": 0, "CLASSIFICATION_TYPE": "U", "NORAD_CAT_ID": 66629, "ELEMENT_SET_NO": 999, "REV_AT_EPOCH": 466, "BSTAR": 0.0012229032, "MEAN_MOTION_DOT": 0.0006806, "MEAN_MOTION_DDOT": 0}, "tle": {"line1": "1 66629U 25271N   25349.33335648  .00068060  00000+0  12229-2 0  9991", "line2": "2 66629  53.1593 174.7832 0000770  99.0520  86.5901 15.49267986  4660"}}, "geometry": {"type": "Point", "coordinates": [-44.04003724171298, 37.32006786789102]}}, {"type": "Feature", "properties": {"norad_id": 66630, "name": "STARLINK-35949", "group": "last-30-days", "lat": 36.03003057926837, "lon": -42.23225117231369, "alt_km": 413.3358563852944, "timestamp": "2025-12-16T03:53:25.816311+00:00", "meta": {"OBJECT_NAME": "STARLINK-35949", "OBJECT_ID": "2025-271P", "EPOCH": "2025-12-15T08:00:01.999872", "MEAN_MOTION": 15.4930367, "ECCENTRICITY": 8.724e-05, "INCLINATION": 53.1594, "RA_OF_ASC_NODE": 174.7782, "ARG_OF_PERICENTER": 86.1169, "MEAN_ANOMALY": 101.3275, "EPHEMERIS_TYPE": 0, "CLASSIFICATION_TYPE": "U", "NORAD_CAT_ID": 66630, "ELEMENT_SET_NO": 999, "REV_AT_EPOCH": 466, "BSTAR": 0.0014368817, "MEAN_MOTION_DOT": 0.00080275, "MEAN_MOTION_DDOT": 0}, "tle": {"line1": "1 66630U 25271P   25349.33335648  .00080275  00000+0  14369-2 0  9992", "line2": "2 66630  53.1594 174.7782 0000872  86.1169 101.3275 15.49303670  4667"}}, "geometry": {"type": "Point", "coordinates": [-42.23225117231369, 36.03003057926837]}}, {"type": "Feature", "properties": {"norad_id": 66631, "name": "STARLINK-35965", "group": "last-30-days", "lat": 34.744579233855404, "lon": -40.521898057044346, "alt_km": 414.117304521822, "timestamp": "2025-12-16T03:53:25.816322+00:00", "meta": {"OBJECT_NAME": "STARLINK-35965", "OBJECT_ID": "2025-271Q", "EPOCH": "2025-12-15T08:00:01.999872", "MEAN_MOTION": 15.49264724, "ECCENTRICITY": 7.377e-05, "INCLINATION": 53.1592, "RA_OF_ASC_NODE": 174.7749, "ARG_OF_PERICENTER": 43.9382, "MEAN_ANOMALY": 145.5444, "EPHEMERIS_TYPE": 0, "CLASSIFICATION_TYPE": "U", "NORAD_CAT_ID": 66631, "ELEMENT_SET_NO": 999, "REV_AT_EPOCH": 466, "BSTAR": 0.0012393037, "MEAN_MOTION_DOT": 0.00068979, "MEAN_MOTION_DDOT": 0}, "tle": {"line1": "1 66631U 25271Q   25349.33335648  .00068979  00000+0  12393-2 0  9995", "line2": "2 66631  53.1592 174.7749 0000737  43.9382 145.5444 15.49264724  4661"}}, "geometry": {"type": "Point", "coordinates": [-40.521898057044346, 34.744579233855404]}}, {"type": "Feature", "properties": {"norad_id": 66632, "name": "STARLINK-35973", "group": "last-30-days", "lat": 53.13064389913618, "lon": -100.57948523197739, "alt_km": 443.08948151696677, "timestamp": "2025-12-16T03:53:25.816332+00:00", "meta": {"OBJECT_NAME": "STARLINK-35973", "OBJECT_ID": "2025-271R", "EPOCH": "2025-12-15T08:00:01.999872", "MEAN_MOTION": 15.42364134, "ECCENTRICITY": 0.0001388, "INCLINATION": 53.1593, "RA_OF_ASC_NODE": 174.8109, "ARG_OF_PERICENTER": 119.3137, "MEAN_ANOMALY": 51.7457, "EPHEMERIS_TYPE": 0, "CLASSIFICATION_TYPE": "U", "NORAD_CAT_ID": 66632, "ELEMENT_SET_NO": 999, "REV_AT_EPOCH": 460, "BSTAR": -0.059564005, "MEAN_MOTION_DOT": -0.02329117, "MEAN_MOTION_DDOT": 0}, "tle": {"line1": "1 66632U 25271R   25349.33335648 -.02329117  00000+0 -59564-1 0  9994", "line2": "2 66632  53.1593 174.8109 0001388 119.3137  51.7457 15.42364134  4608"}}, "geometry": {"type": "Point", "coordinates": [-100.57948523197739, 53.13064389913618]}}, {"type": "Feature", "properties": {"norad_id": 66633, "name": "STARLINK-35948", "group": "last-30-days", "lat": 53.129841887845, "lon": -97.5516201567744, "alt_km": 443.26355033847904, "timestamp": "2025-12-16T03:53:25.816342+00:00", "meta": {"OBJECT_NAME": "STARLINK-35948", "OBJECT_ID": "2025-271S", "EPOCH": "2025-12-15T08:00:01.999872", "MEAN_MOTION": 15.42347576, "ECCENTRICITY": 0.00011465, "INCLINATION": 53.1594, "RA_OF_ASC_NODE": 174.8061, "ARG_OF_PERICENTER": 119.1825, "MEAN_ANOMALY": 53.7339, "EPHEMERIS_TYPE": 0, "CLASSIFICATION_TYPE": "U", "NORAD_CAT_ID": 66633, "ELEMENT_SET_NO": 999, "REV_AT_EPOCH": 466, "BSTAR": -0.059526543, "MEAN_MOTION_DOT": -0.02326497, "MEAN_MOTION_DDOT": 0}, "tle": {"line1": "1 66633U 25271S   25349.33335648 -.02326497  00000+0 -59527-1 0  9992", "line2": "2 66633  53.1594 174.8061 0001146 119.1825  53.7339 15.42347576  4669"}}, "geometry": {"type": "Point", "coordinates": [-97.5516201567744, 53.129841887845]}}, {"type": "Feature", "properties": {"norad_id": 66634, "name": "STARLINK-35967", "group": "last-30-days", "lat": 45.86867808374278, "lon": -59.75997682617009, "alt_km": 433.9590093116776, "timestamp": "2025-12-16T03:53:25.816353+00:00", "meta": {"OBJECT_NAME": "STARLINK-35967", "OBJECT_ID": "2025-271T", "EPOCH": "2025-12-15T08:00:01.999872", "MEAN_MOTION": 15.45231055, "ECCENTRICITY": 0.00014831, "INCLINATION": 53.16, "RA_OF_ASC_NODE": 174.7747, "ARG_OF_PERICENTER": 78.23, "MEAN_ANOMALY": 110.4296, "EPHEMERIS_TYPE": 0, "CLASSIFICATION_TYPE": "U", "NORAD_CAT_ID": 66634, "ELEMENT_SET_NO": 999, "REV_AT_EPOCH": 459, "BSTAR": -0.045992009, "MEAN_MOTION_DOT": -0.01983112, "MEAN_MOTION_DDOT": 0}, "tle": {"line1": "1 66634U 25271T   25349.33335648 -.01983112  00000+0 -45992-1 0  9996", "line2": "2 66634  53.1600 174.7747 0001483  78.2300 110.4296 15.45231055  4597"}}, "geometry": {"type": "Point", "coordinates": [-59.75997682617009, 45.86867808374278]}}, {"type": "Feature", "properties": {"norad_id": 66635, "name": "STARLINK-35955", "group": "last-30-days", "lat": 29.3392600725171, "lon": -34.13004223456956, "alt_km": 415.147714130685, "timestamp": "2025-12-16T03:53:25.816365+00:00", "meta": {"OBJECT_NAME": "STARLINK-35955", "OBJECT_ID": "2025-271U", "EPOCH": "2025-12-15T08:00:01.999872", "MEAN_MOTION": 15.49300535, "ECCENTRICITY": 2.113e-05, "INCLINATION": 53.1591, "RA_OF_ASC_NODE": 174.7577, "ARG_OF_PERICENTER": 32.6863, "MEAN_ANOMALY": 164.4504, "EPHEMERIS_TYPE": 0, "CLASSIFICATION_TYPE": "U", "NORAD_CAT_ID": 66635, "ELEMENT_SET_NO": 999, "REV_AT_EPOCH": 466, "BSTAR": 0.00048320631, "MEAN_MOTION_DOT": 0.00026509, "MEAN_MOTION_DDOT": 0}, "tle": {"line1": "1 66635U 25271U   25349.33335648  .00026509  00000+0  48321-3 0  9993", "line2": "2 66635  53.1591 174.7577 0000211  32.6863 164.4504 15.49300535  4667"}}, "geometry": {"type": "Point", "coordinates": [-34.13004223456956, 29.3392600725171]}}, {"type": "Feature", "properties": {"norad_id": 66636, "name": "STARLINK-35968", "group": "last-30-days", "lat": 34.842652299220326, "lon": -40.65141306518999, "alt_km": 427.7744989796929, "timestamp": "2025-12-16T03:53:25.816378+00:00", "meta": {"OBJECT_NAME": "STARLINK-35968", "OBJECT_ID": "2025-271V", "EPOCH": "2025-12-15T08:00:01.999872", "MEAN_MOTION": 15.48095174, "ECCENTRICITY": 0.00011907, "INCLINATION": 53.159, "RA_OF_ASC_NODE": 174.7546, "ARG_OF_PERICENTER": 98.0745, "MEAN_ANOMALY": 100.3803, "EPHEMERIS_TYPE": 0, "CLASSIFICATION_TYPE": "U", "NORAD_CAT_ID": 66636, "ELEMENT_SET_NO": 999, "REV_AT_EPOCH": 466, "BSTAR": -0.043081767, "MEAN_MOTION_DOT": -0.02044895, "MEAN_MOTION_DDOT": 0}, "tle": {"line1": "1 66636U 25271V   25349.33335648 -.02044895  00000+0 -43082-1 0  9993", "line2": "2 66636  53.1590 174.7546 0001190  98.0745 100.3803 15.48095174  4665"}}, "geometry": {"type": "Point", "coordinates": [-40.65141306518999, 34.842652299220326]}}, {"type": "Feature", "properties": {"norad_id": 66637, "name": "STARLINK-35953", "group": "last-30-days", "lat": 26.50918773479003, "lon": -31.17420594351542, "alt_km": 415.5325694960411, "timestamp": "2025-12-16T03:53:25.816390+00:00", "meta": {"OBJECT_NAME": "STARLINK-35953", "OBJECT_ID": "2025-271W", "EPOCH": "2025-12-15T08:00:01.999872", "MEAN_MOTION": 15.49265837, "ECCENTRICITY": 8.12e-05, "INCLINATION": 53.1591, "RA_OF_ASC_NODE": 174.7497, "ARG_OF_PERICENTER": 46.4123, "MEAN_ANOMALY": 154.5703, "EPHEMERIS_TYPE": 0, "CLASSIFICATION_TYPE": "U", "NORAD_CAT_ID": 66637, "ELEMENT_SET_NO": 999, "REV_AT_EPOCH": 466, "BSTAR": 0.0012248928, "MEAN_MOTION_DOT": 0.00068168, "MEAN_MOTION_DDOT": 0}, "tle": {"line1": "1 66637U 25271W   25349.33335648  .00068168  00000+0  12249-2 0  9991", "line2": "2 66637  53.1591 174.7497 0000812  46.4123 154.5703 15.49265837  4665"}}, "geometry": {"type": "Point", "coordinates": [-31.17420594351542, 26.50918773479003]}}, {"type": "Feature", "properties": {"norad_id": 66638, "name": "STARLINK-35972", "group": "last-30-days", "lat": 25.07725098715134, "lon": -29.75671448155126, "alt_km": 415.64647140799843, "timestamp": "2025-12-16T03:53:25.816401+00:00", "meta": {"OBJECT_NAME": "STARLINK-35972", "OBJECT_ID": "2025-271X", "EPOCH": "2025-12-15T08:00:01.999872", "MEAN_MOTION": 15.4926536, "ECCENTRICITY": 6.368e-05, "INCLINATION": 53.1591, "RA_OF_ASC_NODE": 174.7461, "ARG_OF_PERICENTER": 61.2871, "MEAN_ANOMALY": 141.6131, "EPHEMERIS_TYPE": 0, "CLASSIFICATION_TYPE": "U", "NORAD_CAT_ID": 66638, "ELEMENT_SET_NO": 999, "REV_AT_EPOCH": 466, "BSTAR": 0.0012547288, "MEAN_MOTION_DOT": 0.00069853, "MEAN_MOTION_DDOT": 0}, "tle": {"line1": "1 66638U 25271X   25349.33335648  .00069853  00000+0  12547-2 0  9995", "line2": "2 66638  53.1591 174.7461 0000636  61.2871 141.6131 15.49265360  4669"}}, "geometry": {"type": "Point", "coordinates": [-29.75671448155126, 25.07725098715134]}}]}